[{"OBJECT_NAME":"STARLINK-33848","OBJECT_ID":"2025-087J","EPOCH":"2025-12-23T00:31:54.048576","MEAN_MOTION":15.30173123,"ECCENTRICITY":0.00013442,"INCLINATION":53.1576,"RA_OF_ASC_NODE":215.5137,"ARG_OF_PERICENTER":97.0955,"MEAN_ANOMALY":263.0199,"EPHEMERIS_TYPE":0,"CLASSIFICATION_TYPE":"U","NORAD_CAT_ID":63705,"ELEMENT_SET_NO":999,"REV_AT_EPOCH":3745,"BSTAR":0.0008111654,"MEAN_MOTION_DOT":0.00023722,"MEAN_MOTION_DDOT":0},{"OBJECT_NAME":"STARLINK-33995","OBJECT_ID":"2025-087K","EPOCH":"2025-12-22T23:58:37.816320","MEAN_MOTION":15.30202235,"ECCENTRICITY":0.00010567,"INCLINATION":53.1595,"RA_OF_ASC_NODE":216.0809,"ARG_OF_PERICENTER":91.7212,"MEAN_ANOMALY":268.391,"EPHEMERIS_TYPE":0,"CLASSIFICATION_TYPE":"U","NORAD_CAT_ID":63706,"ELEMENT_SET_NO":999,"REV_AT_EPOCH":3745,"BSTAR":0.00049196515,"MEAN_MOTION_DOT":0.0001424,"MEAN_MOTION_DDOT":0},{"OBJECT_NAME":"STARLINK-33982","OBJECT_ID":"2025-087L","EPOCH":"2025-12-22T19:58:51.447360","MEAN_MOTION":15.30186469,"ECCENTRICITY":0.00013689,"INCLINATION":53.1583,"RA_OF_ASC_NODE":216.467,"ARG_OF_PERICENTER":68.2224,"MEAN_ANOMALY":291.8923,"EPHEMERIS_TYPE":0,"CLASSIFICATION_TYPE":"U","NORAD_CAT_ID":63707,"ELEMENT_SET_NO":999,"REV_AT_EPOCH":3743,"BSTAR":0.00067694198,"MEAN_MOTION_DOT":0.00019735,"MEAN_MOTION_DDOT":0},{"OBJECT_NAME":"STARLINK-33915","OBJECT_ID":"2025-087M","EPOCH":"2025-12-22T20:15:34.167744","MEAN_MOTION":15.30213222,"ECCENTRICITY":0.00016682,"INCLINATION":53.1576,"RA_OF_ASC_NODE":216.5401,"ARG_OF_PERICENTER":126.2746,"MEAN_ANOMALY":233.8409,"EPHEMERIS_TYPE":0,"CLASSIFICATION_TYPE":"U","NORAD_CAT_ID":63708,"ELEMENT_SET_NO":999,"REV_AT_EPOCH":3743,"BSTAR":0.00072892947,"MEAN_MOTION_DOT":0.000213,"MEAN_MOTION_DDOT":0},{"OBJECT_NAME":"STARLINK-33862","OBJECT_ID":"2025-087N","EPOCH":"2025-12-23T00:48:36.955584","MEAN_MOTION":15.30188304,"ECCENTRICITY":0.00012218,"INCLINATION":53.1564,"RA_OF_ASC_NODE":215.5913,"ARG_OF_PERICENTER":63.8047,"MEAN_ANOMALY":296.3079,"EPHEMERIS_TYPE":0,"CLASSIFICATION_TYPE":"U","NORAD_CAT_ID":63709,"ELEMENT_SET_NO":999,"REV_AT_EPOCH":3746,"BSTAR":0.001201762,"MEAN_MOTION_DOT":0.0003539,"MEAN_MOTION_DDOT":0},{"OBJECT_NAME":"STARLINK-33920","OBJECT_ID":"2025-087P","EPOCH":"2025-12-22T23:48:01.528704","MEAN_MOTION":15.30170343,"ECCENTRICITY":0.00015709,"INCLINATION":53.1578,"RA_OF_ASC_NODE":216.0368,"ARG_OF_PERICENTER":79.4612,"MEAN_ANOMALY":280.6566,"EPHEMERIS_TYPE":0,"CLASSIFICATION_TYPE":"U","NORAD_CAT_ID":63710,"ELEMENT_SET_NO":999,"REV_AT_EPOCH":3745,"BSTAR":0.00082242035,"MEAN_MOTION_DOT":0.00024055,"MEAN_MOTION_DDOT":0},{"OBJECT_NAME":"STARLINK-33580","OBJECT_ID":"2025-087Q","EPOCH":"2025-12-22T19:19:30.495648","MEAN_MOTION":15.30213186,"ECCENTRICITY":0.00013845,"INCLINATION":53.1582,"RA_OF_ASC_NODE":217.0032,"ARG_OF_PERICENTER":99.7493,"MEAN_ANOMALY":260.3664,"EPHEMERIS_TYPE":0,"CLASSIFICATION_TYPE":"U","NORAD_CAT_ID":63711,"ELEMENT_SET_NO":999,"REV_AT_EPOCH":3742,"BSTAR":0.0008073499,"MEAN_MOTION_DOT":0.00023638,"MEAN_MOTION_DDOT":0},{"OBJECT_NAME":"STARLINK-33783","OBJECT_ID":"2025-087R","EPOCH":"2025-12-23T01:18:59.892768","MEAN_MOTION":15.30207643,"ECCENTRICITY":0.00010929,"INCLINATION":53.1567,"RA_OF_ASC_NODE":215.723,"ARG_OF_PERICENTER":117.4266,"MEAN_ANOMALY":242.6846,"EPHEMERIS_TYPE":0,"CLASSIFICATION_TYPE":"U","NORAD_CAT_ID":63712,"ELEMENT_SET_NO":999,"REV_AT_EPOCH":3746,"BSTAR":8.3192888e-5,"MEAN_MOTION_DOT":2.106e-5,"MEAN_MOTION_DDOT":0},{"OBJECT_NAME":"STARLINK-33773","OBJECT_ID":"2025-087S","EPOCH":"2025-12-23T00:28:51.650400","MEAN_MOTION":15.30184287,"ECCENTRICITY":0.00013736,"INCLINATION":53.1588,"RA_OF_ASC_NODE":215.5008,"ARG_OF_PERICENTER":85.5202,"MEAN_ANOMALY":274.5956,"EPHEMERIS_TYPE":0,"CLASSIFICATION_TYPE":"U","NORAD_CAT_ID":63713,"ELEMENT_SET_NO":999,"REV_AT_EPOCH":3746,"BSTAR":0.00092465952,"MEAN_MOTION_DOT":0.00027113,"MEAN_MOTION_DDOT":0},{"OBJECT_NAME":"STARLINK-33745","OBJECT_ID":"2025-087T","EPOCH":"2025-12-23T00:24:17.422848","MEAN_MOTION":15.3020845,"ECCENTRICITY":0.00010457,"INCLINATION":53.1586,"RA_OF_ASC_NODE":215.4826,"ARG_OF_PERICENTER":223.6912,"MEAN_ANOMALY":136.4006,"EPHEMERIS_TYPE":0,"CLASSIFICATION_TYPE":"U","NORAD_CAT_ID":63714,"ELEMENT_SET_NO":999,"REV_AT_EPOCH":3746,"BSTAR":0.00078272042,"MEAN_MOTION_DOT":0.000229,"MEAN_MOTION_DDOT":0},{"OBJECT_NAME":"STARLINK-33728","OBJECT_ID":"2025-087U","EPOCH":"2025-12-23T00:34:56.238528","MEAN_MOTION":15.30188009,"ECCENTRICITY":0.0001358,"INCLINATION":53.1582,"RA_OF_ASC_NODE":215.5259,"ARG_OF_PERICENTER":94.1432,"MEAN_ANOMALY":265.9724,"EPHEMERIS_TYPE":0,"CLASSIFICATION_TYPE":"U","NORAD_CAT_ID":63715,"ELEMENT_SET_NO":999,"REV_AT_EPOCH":3746,"BSTAR":0.0010545324,"MEAN_MOTION_DOT":0.00030992,"MEAN_MOTION_DDOT":0},{"OBJECT_NAME":"STARLINK-33749","OBJECT_ID":"2025-087V","EPOCH":"2025-12-22T00:21:43.175520","MEAN_MOTION":15.30211453,"ECCENTRICITY":7.959e-5,"INCLINATION":53.1569,"RA_OF_ASC_NODE":220.6045,"ARG_OF_PERICENTER":74.1165,"MEAN_ANOMALY":285.9924,"EPHEMERIS_TYPE":0,"CLASSIFICATION_TYPE":"U","NORAD_CAT_ID":63716,"ELEMENT_SET_NO":999,"REV_AT_EPOCH":3730,"BSTAR":-0.00025586007,"MEAN_MOTION_DOT":-7.931e-5,"MEAN_MOTION_DDOT":0},{"OBJECT_NAME":"STARLINK-33725","OBJECT_ID":"2025-087W","EPOCH":"2025-12-22T19:57:19.795968","MEAN_MOTION":15.30219507,"ECCENTRICITY":0.00015058,"INCLINATION":53.157,"RA_OF_ASC_NODE":216.4428,"ARG_OF_PERICENTER":112.8646,"MEAN_ANOMALY":247.2514,"EPHEMERIS_TYPE":0,"CLASSIFICATION_TYPE":"U","NORAD_CAT_ID":63717,"ELEMENT_SET_NO":999,"REV_AT_EPOCH":3743,"BSTAR":0.00063417951,"MEAN_MOTION_DOT":0.00018481,"MEAN_MOTION_DDOT":0},{"OBJECT_NAME":"STARLINK-33641","OBJECT_ID":"2025-087X","EPOCH":"2025-12-23T01:02:17.708064","MEAN_MOTION":15.30242691,"ECCENTRICITY":0.00020553,"INCLINATION":53.156,"RA_OF_ASC_NODE":215.6551,"ARG_OF_PERICENTER":22.7383,"MEAN_ANOMALY":337.3709,"EPHEMERIS_TYPE":0,"CLASSIFICATION_TYPE":"U","NORAD_CAT_ID":63718,"ELEMENT_SET_NO":999,"REV_AT_EPOCH":3746,"BSTAR":0.00075303666,"MEAN_MOTION_DOT":0.0002204,"MEAN_MOTION_DDOT":0},{"OBJECT_NAME":"STARLINK-33727","OBJECT_ID":"2025-087Y","EPOCH":"2025-12-22T19:39:05.976288","MEAN_MOTION":15.30212125,"ECCENTRICITY":0.00017103,"INCLINATION":53.159,"RA_OF_ASC_NODE":216.3797,"ARG_OF_PERICENTER":101.4878,"MEAN_ANOMALY":258.6315,"EPHEMERIS_TYPE":0,"CLASSIFICATION_TYPE":"U","NORAD_CAT_ID":63719,"ELEMENT_SET_NO":999,"REV_AT_EPOCH":3743,"BSTAR":0.00055394179,"MEAN_MOTION_DOT":0.00016089,"MEAN_MOTION_DDOT":0},{"OBJECT_NAME":"STARLINK-33757","OBJECT_ID":"2025-087Z","EPOCH":"2025-12-23T00:54:40.688352","MEAN_MOTION":15.3016888,"ECCENTRICITY":0.0001271,"INCLINATION":53.1567,"RA_OF_ASC_NODE":215.6121,"ARG_OF_PERICENTER":100.404,"MEAN_ANOMALY":259.7104,"EPHEMERIS_TYPE":0,"CLASSIFICATION_TYPE":"U","NORAD_CAT_ID":63720,"ELEMENT_SET_NO":999,"REV_AT_EPOCH":3746,"BSTAR":0.00099135977,"MEAN_MOTION_DOT":0.00029089,"MEAN_MOTION_DDOT":0},{"OBJECT_NAME":"STARLINK-33774","OBJECT_ID":"2025-087AA","EPOCH":"2025-12-23T01:15:58.040640","MEAN_MOTION":15.30188923,"ECCENTRICITY":0.00010565,"INCLINATION":53.1559,"RA_OF_ASC_NODE":215.7069,"ARG_OF_PERICENTER":118.0208,"MEAN_ANOMALY":242.09,"EPHEMERIS_TYPE":0,"CLASSIFICATION_TYPE":"U","NORAD_CAT_ID":63721,"ELEMENT_SET_NO":999,"REV_AT_EPOCH":3746,"BSTAR":0.00085809094,"MEAN_MOTION_DOT":0.00025132,"MEAN_MOTION_DDOT":0},{"OBJECT_NAME":"STARLINK-33767","OBJECT_ID":"2025-087AB","EPOCH":"2025-12-23T00:36:27.254016","MEAN_MOTION":15.302058,"ECCENTRICITY":0.00013946,"INCLINATION":53.1578,"RA_OF_ASC_NODE":215.5318,"ARG_OF_PERICENTER":73.8155,"MEAN_ANOMALY":286.2999,"EPHEMERIS_TYPE":0,"CLASSIFICATION_TYPE":"U","NORAD_CAT_ID":63722,"ELEMENT_SET_NO":999,"REV_AT_EPOCH":3746,"BSTAR":0.00060358295,"MEAN_MOTION_DOT":0.00017563,"MEAN_MOTION_DDOT":0},{"OBJECT_NAME":"STARLINK-33806","OBJECT_ID":"2025-087AC","EPOCH":"2025-12-23T00:45:34.659360","MEAN_MOTION":15.30228075,"ECCENTRICITY":0.00011672,"INCLINATION":53.1565,"RA_OF_ASC_NODE":215.5718,"ARG_OF_PERICENTER":89.8156,"MEAN_ANOMALY":270.2979,"EPHEMERIS_TYPE":0,"CLASSIFICATION_TYPE":"U","NORAD_CAT_ID":63723,"ELEMENT_SET_NO":999,"REV_AT_EPOCH":3746,"BSTAR":0.00044706014,"MEAN_MOTION_DOT":0.00012916,"MEAN_MOTION_DDOT":0},{"OBJECT_NAME":"STARLINK-11677 [DTC]","OBJECT_ID":"2025-089A","EPOCH":"2025-12-23T03:30:35.387424","MEAN_MOTION":15.70872739,"ECCENTRICITY":0.00011503,"INCLINATION":42.9994,"RA_OF_ASC_NODE":33.9447,"ARG_OF_PERICENTER":252.0393,"MEAN_ANOMALY":108.0349,"EPHEMERIS_TYPE":0,"CLASSIFICATION_TYPE":"U","NORAD_CAT_ID":63751,"ELEMENT_SET_NO":999,"REV_AT_EPOCH":3809,"BSTAR":0.0016698574,"MEAN_MOTION_DOT":0.00219883,"MEAN_MOTION_DDOT":0},{"OBJECT_NAME":"STARLINK-11702 [DTC]","OBJECT_ID":"2025-089B","EPOCH":"2025-12-23T02:52:21.453600","MEAN_MOTION":15.70982838,"ECCENTRICITY":0.00018799,"INCLINATION":42.9998,"RA_OF_ASC_NODE":33.7296,"ARG_OF_PERICENTER":215.8692,"MEAN_ANOMALY":144.205,"EPHEMERIS_TYPE":0,"CLASSIFICATION_TYPE":"U","NORAD_CAT_ID":63752,"ELEMENT_SET_NO":999,"REV_AT_EPOCH":3809,"BSTAR":0.0022716223,"MEAN_MOTION_DOT":0.00303755,"MEAN_MOTION_DDOT":0},{"OBJECT_NAME":"STARLINK-11706 [DTC]","OBJECT_ID":"2025-089C","EPOCH":"2025-12-23T04:00:58.953600","MEAN_MOTION":15.71010297,"ECCENTRICITY":0.0001877,"INCLINATION":42.9999,"RA_OF_ASC_NODE":33.2185,"ARG_OF_PERICENTER":259.9895,"MEAN_ANOMALY":100.0761,"EPHEMERIS_TYPE":0,"CLASSIFICATION_TYPE":"U","NORAD_CAT_ID":63753,"ELEMENT_SET_NO":999,"REV_AT_EPOCH":3810,"BSTAR":0.0026150766,"MEAN_MOTION_DOT":0.00352226,"MEAN_MOTION_DDOT":0},{"OBJECT_NAME":"STARLINK-11662 [DTC]","OBJECT_ID":"2025-089D","EPOCH":"2025-12-23T03:07:39.217728","MEAN_MOTION":15.70892469,"ECCENTRICITY":0.00010316,"INCLINATION":42.9982,"RA_OF_ASC_NODE":33.8157,"ARG_OF_PERICENTER":299.0668,"MEAN_ANOMALY":61.0096,"EPHEMERIS_TYPE":0,"CLASSIFICATION_TYPE":"U","NORAD_CAT_ID":63754,"ELEMENT_SET_NO":999,"REV_AT_EPOCH":3814,"BSTAR":0.0019590154,"MEAN_MOTION_DOT":0.002595,"MEAN_MOTION_DDOT":0}]
